{
    "links": {
        "self": "http://www.neowsapp.com/rest/v1/neo/54055108?api_key=iIulBulltgU6a56xZRHN4H3l9WmuAYTsLGpBGhQ2"
    },
    "id": "54055108",
    "neo_reference_id": "54055108",
    "name": "(2020 TB3)",
    "designation": "2020 TB3",
    "nasa_jpl_url": "http://ssd.jpl.nasa.gov/sbdb.cgi?sstr=54055108",
    "absolute_magnitude_h": 25.736,
    "estimated_diameter": {
        "kilometers": {
            "estimated_diameter_min": 0.0189389098,
            "estimated_diameter_max": 0.0423486898
        },
        "meters": {
            "estimated_diameter_min": 18.9389098419,
            "estimated_diameter_max": 42.3486898263
        },
        "miles": {
            "estimated_diameter_min": 0.0117680893,
            "estimated_diameter_max": 0.0263142477
        },
        "feet": {
            "estimated_diameter_min": 62.1355329657,
            "estimated_diameter_max": 138.9392755296
        }
    },
    "is_potentially_hazardous_asteroid": false,
    "close_approach_data": [
        {
            "close_approach_date": "2015-04-22",
            "close_approach_date_full": "2015-Apr-22 15:16",
            "epoch_date_close_approach": 1429715760000,
            "relative_velocity": {
                "kilometers_per_second": "13.9521988613",
                "kilometers_per_hour": "50227.9159005626",
                "miles_per_hour": "31209.673632769"
            },
            "miss_distance": {
                "astronomical": "0.2183392847",
                "lunar": "84.9339817483",
                "kilometers": "32663091.928443589",
                "miles": "20295904.1907519682"
            },
            "orbiting_body": "Earth"
        },
        {
            "close_approach_date": "2020-02-29",
            "close_approach_date_full": "2020-Feb-29 04:17",
            "epoch_date_close_approach": 1582949820000,
            "relative_velocity": {
                "kilometers_per_second": "7.7822005209",
                "kilometers_per_hour": "28015.9218752739",
                "miles_per_hour": "17408.0043452223"
            },
            "miss_distance": {
                "astronomical": "0.4152967022",
                "lunar": "161.5504171558",
                "kilometers": "62127502.067144314",
                "miles": "38604239.6821429732"
            },
            "orbiting_body": "Earth"
        },
        {
            "close_approach_date": "2020-09-29",
            "close_approach_date_full": "2020-Sep-29 11:50",
            "epoch_date_close_approach": 1601380200000,
            "relative_velocity": {
                "kilometers_per_second": "8.7083356443",
                "kilometers_per_hour": "31350.0083193663",
                "miles_per_hour": "19479.676002664"
            },
            "miss_distance": {
                "astronomical": "0.0301428749",
                "lunar": "11.7255783361",
                "kilometers": "4509309.880716463",
                "miles": "2801955.2314866694"
            },
            "orbiting_body": "Earth"
        },
        {
            "close_approach_date": "2024-04-15",
            "close_approach_date_full": "2024-Apr-15 23:24",
            "epoch_date_close_approach": 1713223440000,
            "relative_velocity": {
                "kilometers_per_second": "18.0674455554",
                "kilometers_per_hour": "65042.8039995689",
                "miles_per_hour": "40415.0689629543"
            },
            "miss_distance": {
                "astronomical": "0.3570236763",
                "lunar": "138.8822100807",
                "kilometers": "53409981.514049481",
                "miles": "33187423.5915495978"
            },
            "orbiting_body": "Earth"
        }
    ],
    "orbital_data": {
        "orbit_id": "2",
        "orbit_determination_date": "2020-10-18 08:06:50",
        "first_observation_date": "2020-10-10",
        "last_observation_date": "2020-10-18",
        "data_arc_in_days": 8,
        "observations_used": 21,
        "orbit_uncertainty": "8",
        "minimum_orbit_intersection": ".00705649",
        "jupiter_tisserand_invariant": "5.321",
        "epoch_osculation": "2459133.5",
        "eccentricity": ".2600276382820885",
        "semi_major_axis": "1.181685695358889",
        "inclination": "4.629737709012055",
        "ascending_node_longitude": "188.865570614414",
        "orbital_period": "469.192859740223",
        "perihelion_distance": ".8744147548029895",
        "perihelion_argument": "107.1366090588421",
        "aphelion_distance": "1.488956635914788",
        "perihelion_time": "2459065.763100486766",
        "mean_anomaly": "51.97283658209459",
        "mean_motion": ".7672751034602709",
        "equinox": "J2000",
        "orbit_class": {
            "orbit_class_type": "APO",
            "orbit_class_description": "Near-Earth asteroid orbits which cross the Earth’s orbit similar to that of 1862 Apollo",
            "orbit_class_range": "a (semi-major axis) > 1.0 AU; q (perihelion) < 1.017 AU"
        }
    },
    "is_sentry_object": false
}